{
  "type": "FeatureCollection",
  "features": [
    {
      "type": "Feature",
      "properties": {
        "norad_id": 31695,
        "name": "FENGYUN 1C DEB",
        "group": "fengyun-1c-debris",
        "lat": -47.42180468476938,
        "lon": 95.13918864809668,
        "alt_km": 733.0543288150229,
        "timestamp": "2025-12-27T10:28:59.078205+00:00",
        "meta_object_name": "FENGYUN 1C DEB",
        "meta_object_id": "1999-025CDD",
        "meta_epoch": "2025-12-26T23:18:11.693088",
        "meta_mean_motion": 14.74038728,
        "meta_eccentricity": 0.0174821,
        "meta_inclination": 98.2631,
        "meta_ra_of_asc_node": 85.5642,
        "meta_arg_of_pericenter": 183.2512,
        "meta_mean_anomaly": 176.7575,
        "meta_ephemeris_type": 0,
        "meta_classification_type": "U",
        "meta_norad_cat_id": 31695,
        "meta_element_set_no": 999,
        "meta_rev_at_epoch": 66181,
        "meta_bstar": 0.0019911,
        "meta_mean_motion_dot": 0.00016724,
        "meta_mean_motion_ddot": 0,
        "tle_line1": "1 31695U 99025CDD 25360.97096867  .00016724  00000+0  19911-2 0  9999",
        "tle_line2": "2 31695  98.2631  85.5642 0174821 183.2512 176.7575 14.74038728661814"
      },
      "geometry": {
        "type": "Point",
        "coordinates": [
          95.13918864809668,
          -47.42180468476938
        ]
      }
    },
    {
      "type": "Feature",
      "properties": {
        "norad_id": 31714,
        "name": "FENGYUN 1C DEB",
        "group": "fengyun-1c-debris",
        "lat": 68.93622131865455,
        "lon": 108.05896635792095,
        "alt_km": 600.7367786890327,
        "timestamp": "2025-12-27T10:28:59.078218+00:00",
        "meta_object_name": "FENGYUN 1C DEB",
        "meta_object_id": "1999-025CDM",
        "meta_epoch": "2025-12-26T16:23:48.719328",
        "meta_mean_motion": 14.89553341,
        "meta_eccentricity": 0.00151114,
        "meta_inclination": 99.0318,
        "meta_ra_of_asc_node": 262.8064,
        "meta_arg_of_pericenter": 254.4064,
        "meta_mean_anomaly": 135.9949,
        "meta_ephemeris_type": 0,
        "meta_classification_type": "U",
        "meta_norad_cat_id": 31714,
        "meta_element_set_no": 999,
        "meta_rev_at_epoch": 96257,
        "meta_bstar": 0.0061905901,
        "meta_mean_motion_dot": 0.00059586,
        "meta_mean_motion_ddot": 0,
        "tle_line1": "1 31714U 99025CDM 25360.68320277  .00059586  00000+0  61906-2 0  9998",
        "tle_line2": "2 31714  99.0318 262.8064 0015111 254.4064 135.9949 14.89553341962572"
      },
      "geometry": {
        "type": "Point",
        "coordinates": [
          108.05896635792095,
          68.93622131865455
        ]
      }
    },
    {
      "type": "Feature",
      "properties": {
        "norad_id": 31715,
        "name": "FENGYUN 1C DEB",
        "group": "fengyun-1c-debris",
        "lat": 32.743608810193045,
        "lon": -174.21824654022615,
        "alt_km": 617.0503852322263,
        "timestamp": "2025-12-27T10:28:59.078230+00:00",
        "meta_object_name": "FENGYUN 1C DEB",
        "meta_object_id": "1999-025CDN",
        "meta_epoch": "2025-12-26T19:27:06.486336",
        "meta_mean_motion": 14.52269154,
        "meta_eccentricity": 0.01870348,
        "meta_inclination": 99.293,
        "meta_ra_of_asc_node": 191.1328,
        "meta_arg_of_pericenter": 77.581,
        "meta_mean_anomaly": 284.6243,
        "meta_ephemeris_type": 0,
        "meta_classification_type": "U",
        "meta_norad_cat_id": 31715,
        "meta_element_set_no": 999,
        "meta_rev_at_epoch": 61921,
        "meta_bstar": 0.00070596181,
        "meta_mean_motion_dot": 3.546e-05,
        "meta_mean_motion_ddot": 0,
        "tle_line1": "1 31715U 99025CDN 25360.81049174  .00003546  00000+0  70596-3 0  9999",
        "tle_line2": "2 31715  99.2930 191.1328 0187034  77.5810 284.6243 14.52269154619214"
      },
      "geometry": {
        "type": "Point",
        "coordinates": [
          -174.21824654022615,
          32.743608810193045
        ]
      }
    },
    {
      "type": "Feature",
      "properties": {
        "norad_id": 31716,
        "name": "FENGYUN 1C DEB",
        "group": "fengyun-1c-debris",
        "lat": -69.7034515966015,
        "lon": -76.4334377212054,
        "alt_km": 937.4466793618594,
        "timestamp": "2025-12-27T10:28:59.078240+00:00",
        "meta_object_name": "FENGYUN 1C DEB",
        "meta_object_id": "1999-025CDP",
        "meta_epoch": "2025-12-27T04:41:28.017024",
        "meta_mean_motion": 14.03678695,
        "meta_eccentricity": 0.0131125,
        "meta_inclination": 98.5536,
        "meta_ra_of_asc_node": 259.327,
        "meta_arg_of_pericenter": 50.8913,
        "meta_mean_anomaly": 100.0787,
        "meta_ephemeris_type": 0,
        "meta_classification_type": "U",
        "meta_norad_cat_id": 31716,
        "meta_element_set_no": 999,
        "meta_rev_at_epoch": 94322,
        "meta_bstar": 0.0019575,
        "meta_mean_motion_dot": 3.282e-05,
        "meta_mean_motion_ddot": 0,
        "tle_line1": "1 31716U 99025CDP 25361.19546316  .00003282  00000+0  19575-2 0  9998",
        "tle_line2": "2 31716  98.5536 259.3270 0131125  50.8913 100.0787 14.03678695943225"
      },
      "geometry": {
        "type": "Point",
        "coordinates": [
          -76.4334377212054,
          -69.7034515966015
        ]
      }
    },
    {
      "type": "Feature",
      "properties": {
        "norad_id": 31720,
        "name": "FENGYUN 1C DEB",
        "group": "fengyun-1c-debris",
        "lat": 80.0979927534619,
        "lon": -150.9066202068096,
        "alt_km": 577.4307520897455,
        "timestamp": "2025-12-27T10:28:59.078251+00:00",
        "meta_object_name": "FENGYUN 1C DEB",
        "meta_object_id": "1999-025CDT",
        "meta_epoch": "2025-12-24T16:50:31.302816",
        "meta_mean_motion": 14.719334,
        "meta_eccentricity": 0.01003361,
        "meta_inclination": 99.0481,
        "meta_ra_of_asc_node": 271.9563,
        "meta_arg_of_pericenter": 86.8005,
        "meta_mean_anomaly": 274.4673,
        "meta_ephemeris_type": 0,
        "meta_classification_type": "U",
        "meta_norad_cat_id": 31720,
        "meta_element_set_no": 999,
        "meta_rev_at_epoch": 98412,
        "meta_bstar": 0.00085182682,
        "meta_mean_motion_dot": 5.716e-05,
        "meta_mean_motion_ddot": 0,
        "tle_line1": "1 31720U 99025CDT 25358.70175119  .00005716  00000+0  85183-3 0  9998",
        "tle_line2": "2 31720  99.0481 271.9563 0100336  86.8005 274.4673 14.71933400984128"
      },
      "geometry": {
        "type": "Point",
        "coordinates": [
          -150.9066202068096,
          80.0979927534619
        ]
      }
    },
    {
      "type": "Feature",
      "properties": {
        "norad_id": 31721,
        "name": "FENGYUN 1C DEB",
        "group": "fengyun-1c-debris",
        "lat": 22.762936942129922,
        "lon": -22.734995576992617,
        "alt_km": 1105.138948138584,
        "timestamp": "2025-12-27T10:28:59.078263+00:00",
        "meta_object_name": "FENGYUN 1C DEB",
        "meta_object_id": "1999-025CDU",
        "meta_epoch": "2025-12-26T10:37:07.889088",
        "meta_mean_motion": 13.7378998,
        "meta_eccentricity": 0.0317758,
        "meta_inclination": 99.7825,
        "meta_ra_of_asc_node": 340.3978,
        "meta_arg_of_pericenter": 148.0886,
        "meta_mean_anomaly": 3.1498,
        "meta_ephemeris_type": 0,
        "meta_classification_type": "U",
        "meta_norad_cat_id": 31721,
        "meta_element_set_no": 999,
        "meta_rev_at_epoch": 67574,
        "meta_bstar": 0.00032979,
        "meta_mean_motion_dot": 3.99e-06,
        "meta_mean_motion_ddot": 0,
        "tle_line1": "1 31721U 99025CDU 25360.44245242  .00000399  00000+0  32979-3 0  9995",
        "tle_line2": "2 31721  99.7825 340.3978 0317758 148.0886   3.1498 13.73789980675745"
      },
      "geometry": {
        "type": "Point",
        "coordinates": [
          -22.734995576992617,
          22.762936942129922
        ]
      }
    },
    {
      "type": "Feature",
      "properties": {
        "norad_id": 31724,
        "name": "FENGYUN 1C DEB",
        "group": "fengyun-1c-debris",
        "lat": -49.54821188318952,
        "lon": 177.09398718363863,
        "alt_km": 644.02677469219,
        "timestamp": "2025-12-27T10:28:59.078273+00:00",
        "meta_object_name": "FENGYUN 1C DEB",
        "meta_object_id": "1999-025CDX",
        "meta_epoch": "2025-12-26T06:54:58.294080",
        "meta_mean_motion": 14.49360372,
        "meta_eccentricity": 0.0151827,
        "meta_inclination": 97.8549,
        "meta_ra_of_asc_node": 5.3414,
        "meta_arg_of_pericenter": 200.2257,
        "meta_mean_anomaly": 159.2883,
        "meta_ephemeris_type": 0,
        "meta_classification_type": "U",
        "meta_norad_cat_id": 31724,
        "meta_element_set_no": 999,
        "meta_rev_at_epoch": 64688,
        "meta_bstar": 0.0021763,
        "meta_mean_motion_dot": 9.599e-05,
        "meta_mean_motion_ddot": 0,
        "tle_line1": "1 31724U 99025CDX 25360.28817470  .00009599  00000+0  21763-2 0  9997",
        "tle_line2": "2 31724  97.8549   5.3414 0151827 200.2257 159.2883 14.49360372646887"
      },
      "geometry": {
        "type": "Point",
        "coordinates": [
          177.09398718363863,
          -49.54821188318952
        ]
      }
    }
  ]
}